[{"OBJECT_NAME":"STARLINK-4251","OBJECT_ID":"2022-077AS","EPOCH":"2026-03-09T22:52:43.813632","MEAN_MOTION":15.05645532,"ECCENTRICITY":0.00019401,"INCLINATION":97.6019,"RA_OF_ASC_NODE":251.4402,"ARG_OF_PERICENTER":87.1525,"MEAN_ANOMALY":272.9924,"EPHEMERIS_TYPE":0,"CLASSIFICATION_TYPE":"U","NORAD_CAT_ID":53083,"ELEMENT_SET_NO":999,"REV_AT_EPOCH":20102,"BSTAR":-3.0036315e-5,"MEAN_MOTION_DOT":-4.94e-6,"MEAN_MOTION_DDOT":0},{"OBJECT_NAME":"NOAA 17 DEB","OBJECT_ID":"2002-032W","EPOCH":"2026-03-09T23:34:50.358720","MEAN_MOTION":15.06684432,"ECCENTRICITY":0.0012716,"INCLINATION":98.7039,"RA_OF_ASC_NODE":76.0065,"ARG_OF_PERICENTER":104.6864,"MEAN_ANOMALY":255.577,"EPHEMERIS_TYPE":0,"CLASSIFICATION_TYPE":"U","NORAD_CAT_ID":48181,"ELEMENT_SET_NO":999,"REV_AT_EPOCH":26088,"BSTAR":0.0078736038,"MEAN_MOTION_DOT":0.00118919,"MEAN_MOTION_DDOT":0}]
